STARLINK-3739           
1 52266U 22041F   22117.58335648 -.00876625  00000+0 -56135-2 0  9992
2 52266  53.2174 345.6821 0001205  73.2556 125.9242 15.77948882  1577
STARLINK-3748           
1 52267U 22041G   22117.58335648 -.00876802  00000+0 -56093-2 0  9993
2 52267  53.2175 345.6819 0001202  81.8601 117.7218 15.77970406  1578
STARLINK-3746           
1 52268U 22041H   22117.58335648 -.00876636  00000+0 -55915-2 0  9991
2 52268  53.2174 345.6788 0001202  74.9369 125.8315 15.78036049  1572
STARLINK-3791           
1 52269U 22041J   22117.58335648 -.00876724  00000+0 -56032-2 0  9991
2 52269  53.2174 345.6809 0001193  78.7695 121.2077 15.77992373  1575
STARLINK-3804           
1 52270U 22041K   22117.58335648 -.00876770  00000+0 -55816-2 0  9993
2 52270  53.2174 345.6770 0001208  75.8163 125.7491 15.78078865  1570
STARLINK-3788           
1 52271U 22041L   22117.58335648 -.00876738  00000+0 -55979-2 0  9998
2 52271  53.2174 345.6800 0001184  78.3280 122.0499 15.78013752  1578
STARLINK-3781           
1 52272U 22041M   22117.58335648 -.00876802  00000+0 -55710-2 0  9994
2 52272  53.2174 345.6753 0001206  76.3959 125.9614 15.78121753  1574
STARLINK-3782           
1 52273U 22041N   22117.58335648 -.00876676  00000+0 -55866-2 0  9996
2 52273  53.2174 345.6782 0001195  78.8153 122.3597 15.78056601  1577
STARLINK-3790           
1 52274U 22041P   22117.58335648 -.00876751  00000+0 -55544-2 0  9994
2 52274  53.2174 345.6727 0001185  78.3114 125.2235 15.78186400  1570
STARLINK-3784           
1 52275U 22041Q   22117.58335648 -.00876659  00000+0 -55754-2 0  9995
2 52275  53.2174 345.6765 0001205  75.4765 126.4839 15.78100358  1577
STARLINK-3778           
1 52276U 22041R   22117.58335648 -.00876724  00000+0 -55432-2 0  9992
2 52276  53.2174 345.6709 0001236  72.2154 132.0986 15.78229722  1570
STARLINK-3787           
1 52277U 22041S   22117.58335648 -.00876714  00000+0 -55650-2 0  9994
2 52277  53.2174 345.6747 0001210  73.8872 128.8652 15.78143073  1576
STARLINK-3780           
1 52278U 22041T   22117.58335648 -.00876737  00000+0 -55381-2 0  9991
2 52278  53.2174 345.6700 0001205  77.0989 127.6097 15.78250678  1575
STARLINK-3686           
1 52279U 22041U   22117.58335648 -.00876691  00000+0 -55593-2 0  9996
2 52279  53.2174 345.6738 0001228  68.0185 135.1238 15.78164893  1574
STARLINK-3764           
1 52280U 22041V   22117.58335648 -.00876490  00000+0 -55200-2 0  9990
2 52280  53.2174 345.6676 0001252  65.2206 140.6466 15.78315540  1578
STARLINK-3779           
1 52281U 22041W   22117.58335648 -.00876795  00000+0 -55493-2 0  9993
2 52281  53.2174 345.6721 0001227  73.1899 130.7405 15.78207525  1574
STARLINK-3783           
1 52282U 22041X   22117.58335648 -.00876758  00000+0 -55112-2 0  9991
2 52282  53.2174 345.6659 0001202  71.5382 135.1013 15.78358604  1576
STARLINK-3789           
1 52283U 22041Y   22117.58335648 -.00876746  00000+0 -55327-2 0  9997
2 52283  53.2174 345.6696 0001185  79.0397 126.0533 15.78272628  1574
STARLINK-3561           
1 52284U 22041Z   22117.58335648 -.00732121  00000+0 -45386-2 0  9990
2 52284  53.2162 345.6639 0001097  61.7261 145.7474 15.78285850  1583
STARLINK-3775           
1 52285U 22041AA  22117.58335648 -.00876758  00000+0 -55274-2 0  9993
2 52285  53.2174 345.6687 0001199  73.4353 132.0475 15.78293943  1576
STARLINK-3802           
1 52286U 22041AB  22117.58335648 -.00876857  00000+0 -54904-2 0  9993
2 52286  53.2174 345.6626 0001188  81.2167 126.9538 15.78444767  1572
STARLINK-3822           
1 52287U 22041AC  22117.58335648 -.00876769  00000+0 -55167-2 0  9998
2 52287  53.2174 345.6670 0001234  72.6586 133.6003 15.78336663  1570
STARLINK-3776           
1 52288U 22041AD  22117.58335648 -.00876871  00000+0 -54853-2 0  9994
2 52288  53.2174 345.6617 0001207  79.7599 128.8002 15.78465420  1573
STARLINK-3751           
1 52289U 22041AE  22117.58335648 -.00876673  00000+0 -55052-2 0  9997
2 52289  53.2174 345.6654 0001252  66.2291 140.7972 15.78379803  1573
STARLINK-3772           
1 52290U 22041AF  22117.58335648 -.00876699  00000+0 -54678-2 0  9990
2 52290  53.2174 345.6594 0001292  60.0057 149.6878 15.78530169  1571
STARLINK-3773           
1 52291U 22041AG  22117.58335648 -.00876778  00000+0 -54953-2 0  9995
2 52291  53.2174 345.6638 0001196  78.4610 129.3315 15.78422845  1574
STARLINK-3753           
1 52292U 22041AH  22117.58335648 -.00876836  00000+0 -54584-2 0  9991
2 52292  53.2174 345.6578 0001243  65.7511 144.7062 15.78572277  1575
STARLINK-3771           
1 52293U 22041AJ  22117.58335648 -.00876802  00000+0 -54794-2 0  9998
2 52293  53.2174 345.6613 0001233  72.5615 136.3779 15.78486953  1573
STARLINK-3777           
1 52294U 22041AK  22117.58335648 -.00876787  00000+0 -54529-2 0  9997
2 52294  53.2174 345.6569 0001195  75.8251 135.0100 15.78593515  1570
STARLINK-3765           
1 52295U 22041AL  22117.58335648 -.00876802  00000+0 -54741-2 0  9992
2 52295  53.2174 345.6605 0001254  67.5902 141.7322 15.78508055  1574
STARLINK-3766           
1 52296U 22041AM  22117.58335648 -.00876794  00000+0 -54370-2 0  9991
2 52296  53.2174 345.6546 0001224  70.6439 141.3170 15.78657592  1574
STARLINK-3758           
1 52297U 22041AN  22117.58335648 -.00876899  00000+0 -54642-2 0  9990
2 52297  53.2174 345.6589 0001230  69.8340 140.2475 15.78550775  1571
STARLINK-3760           
1 52298U 22041AP  22117.58335648 -.00876882  00000+0 -54325-2 0  9991
2 52298  53.2174 345.6537 0001208  70.5310 141.8101 15.78678373  1574
STARLINK-3759           
1 52299U 22041AQ  22117.58335648 -.00876927  00000+0 -54430-2 0  9999
2 52299  53.2174 345.6557 0001229  69.7317 141.8479 15.78637013  1571
STARLINK-3769           
1 52300U 22041AR  22117.58335648 -.00876841  00000+0 -54217-2 0  9990
2 52300  53.2174 345.6521 0001226  71.3460 141.7429 15.78720755  1570
STARLINK-3768           
1 52301U 22041AS  22117.58335648 -.00876800  00000+0 -54476-2 0  9993
2 52301  53.2174 345.6564 0001223  67.7506 143.4595 15.78614996  1577
STARLINK-3564           
1 52302U 22041AT  22117.58335648 -.00716758  00000+0 -43611-2 0  9998
2 52302  53.2161 345.6494 0001099  61.7012 152.5715 15.78657752  1586
STARLINK-3742           
1 52303U 22041AU  22117.58335648 -.00876789  00000+0 -54264-2 0  9996
2 52303  53.2174 345.6533 0001252  66.0740 146.6357 15.78700057  1574
STARLINK-3744           
1 52304U 22041AV  22117.58335648 -.00876857  00000+0 -54009-2 0  9990
2 52304  53.2174 345.6488 0001235  67.5202 147.0552 15.78805461  1571
STARLINK-3724           
1 52305U 22041AW  22117.58335648 -.00876906  00000+0 -54168-2 0  9992
2 52305  53.2174 345.6517 0001188  75.2046 138.2487 15.78742768  1573
STARLINK-3747           
1 52306U 22041AX  22117.58335648 -.00876971  00000+0 -53964-2 0  9998
2 52306  53.2174 345.6480 0001202  72.0925 142.8471 15.78827197  1575
STARLINK-3755           
1 52307U 22041AY  22117.58335648 -.00876942  00000+0 -54119-2 0  9990
2 52307  53.2174 345.6508 0001212  72.3805 141.4511 15.78763385  1576
STARLINK-3745           
1 52308U 22041AZ  22117.58335648 -.00877016  00000+0 -53861-2 0  9997
2 52308  53.2174 345.6464 0001198  82.1680 133.4995 15.78870368  1578
STARLINK-3756           
1 52309U 22041BA  22117.58335648 -.00876889  00000+0 -53904-2 0  9993
2 52309  53.2174 345.6477 0001245  66.7594 148.5420 15.78848942  1571
STARLINK-3688           
1 52310U 22041BB  22117.58335648 -.00876994  00000+0 -53758-2 0  9999
2 52310  53.2174 345.6448 0001201  75.3354 141.0762 15.78911678  1577
STARLINK-3750           
1 52311U 22041BC  22117.58335648 -.00876937  00000+0 -53803-2 0  9998
2 52311  53.2174 345.6461 0001225  73.5667 142.4669 15.78891560  1574
STARLINK-3752           
1 52312U 22041BD  22117.58335648 -.00876884  00000+0 -53698-2 0  9992
2 52312  53.2174 345.6440 0001217  69.6568 147.1174 15.78932977  1570
STARLINK-3749           
1 52313U 22041BE  22117.58335648 -.00876974  00000+0 -53654-2 0  9995
2 52313  53.2174 345.6438 0001182  83.9824 133.1613 15.78953744  2167
FALCON 9 DEB            
1 52314U 22041BF  22117.15526010  .00209030  26695-4  73513-3 0  9995
2 52314  53.2096 347.6505 0012556 297.3453  62.6296 15.88680093   878
FALCON 9 DEB            
1 52315U 22041BG  22117.15415450  .00215710  27797-4  74476-3 0  9996
2 52315  53.2100 347.6442 0012995 308.8005  51.1861 15.89027159   873
FALCON 9 DEB            
1 52316U 22041BH  22116.96213185  .00242611  32567-4  79788-3 0  9998
2 52316  53.2111 348.5832 0008040 304.2865  55.7400 15.90046720   842
FALCON 9 DEB            
1 52317U 22041BJ  22117.14952533  .00242982  32771-4  77929-3 0  9990
2 52317  53.2114 347.6201 0008932 325.7360  34.3090 15.90524752   871
DRAGON FREEDOM          
1 52318U 22042A   22117.52130775 -.00003689  11665-4  00000+0 0  9991
2 52318  51.6450 227.6257 0039760 229.0302 188.0439 16.13796047    36
